     2.10           N: GPS NAV DATA                         RINEX VERSION / TYPE
teqc  2005Sep1                          20060103 00:24:56UTCPGM / RUN BY / DATE
Linux 2.4.20-8|Pentium IV|gcc|Linux|486/DX+                 COMMENT
teqc  2005Sep1                          20060102 01:18:13UTCCOMMENT
                                                            END OF HEADER
21 06  1  2  2  0  0.0 1.640184782445D-04 3.865352482535D-12 0.000000000000D+00
    2.060000000000D+02 2.031250000000D+01 4.865916970687D-09-1.392431546786D+00
    7.748603820801D-07 1.051684468985D-02 1.017563045025D-05 5.153739336014D+03
    9.360000000000D+04 1.098960638046D-07 2.978951808637D+00-1.080334186554D-07
    9.454829452169D-01 1.741562500000D+02-3.028394871659D+00-7.984618305688D-09
   -4.418041172006D-10 1.000000000000D+00 1.356000000000D+03 0.000000000000D+00
    2.800000000000D+00 0.000000000000D+00-1.164153218269D-08 4.620000000000D+02
    8.641800000000D+04 4.000000000000D+00
26 06  1  2  2  0  0.0-7.599592208862D-06-7.275957614183D-12 0.000000000000D+00
    5.200000000000D+01 1.265625000000D+01 4.292678807303D-09 2.949893100260D-01
    8.735805749893D-07 1.676360249985D-02-1.844018697739D-07 5.153649904251D+03
    9.360000000000D+04-9.313225746155D-09-1.227291543288D+00 2.421438694000D-07
    9.885144830246D-01 3.934062500000D+02 7.471410620870D-01-8.538212793692D-09
   -1.550064566411D-10 1.000000000000D+00 1.356000000000D+03 0.000000000000D+00
    2.000000000000D+00 0.000000000000D+00-6.053596735001D-09 5.200000000000D+01
    8.641800000000D+04 4.000000000000D+00
29 06  1  2  2  0  0.0 4.827482625842D-04 1.477928890381D-11 0.000000000000D+00
    1.090000000000D+02 2.315625000000D+01 4.281249759808D-09 2.261173465397D+00
    1.387670636177D-06 9.274900658056D-03-7.357448339462D-07 5.153689123154D+03
    9.360000000000D+04 2.030283212662D-07-1.261500309934D+00-1.303851604462D-08
    9.852521742449D-01 4.004375000000D+02-1.012549257152D+00-8.234271561891D-09
   -1.521491947675D-10 1.000000000000D+00 1.356000000000D+03 0.000000000000D+00
    2.000000000000D+00 0.000000000000D+00-6.519258022308D-09 1.090000000000D+02
    8.641800000000D+04 4.000000000000D+00
27 06  1  2  2  0  0.0 2.975761890411D-05 1.591615728103D-12 0.000000000000D+00
    1.230000000000D+02-1.650937500000D+02 4.232319150224D-09-2.412480924531D+00
   -8.581206202507D-06 1.963064621668D-02 5.396082997322D-06 5.153722867966D+03
    9.360000000000D+04 2.086162567139D-07-2.626655147873D-01-1.154839992523D-07
    9.568896993026D-01 2.676875000000D+02-1.979833391710D+00-7.753180093929D-09
   -1.435774091468D-10 1.000000000000D+00 1.356000000000D+03 0.000000000000D+00
    2.000000000000D+00 0.000000000000D+00-4.656612873077D-09 1.230000000000D+02
    8.674800000000D+04 4.000000000000D+00
21 06  1  2  1 59 44.0 1.640189439058D-04 3.865352482535D-12 0.000000000000D+00
    2.260000000000D+02 2.031250000000D+01 4.865916970687D-09-1.394765146893D+00
    7.748603820801D-07 1.051684515551D-02 1.017563045025D-05 5.153739343643D+03
    9.358400000000D+04 1.098960638046D-07 2.978951938837D+00-1.080334186554D-07
    9.454829569202D-01 1.741562500000D+02-3.028395001859D+00-7.984618305688D-09
   -4.418041172006D-10 1.000000000000D+00 1.356000000000D+03 0.000000000000D+00
    2.000000000000D+00 0.000000000000D+00-1.164153218269D-08 2.260000000000D+02
    8.743800000000D+04 4.000000000000D+00
10 06  1  2  1 59 44.0 7.641594856977D-05 6.821210263297D-13 0.000000000000D+00
    6.500000000000D+01 1.418437500000D+02 4.065526488354D-09 1.987482800168D+00
    7.512047886848D-06 6.803027004935D-03 8.666887879372D-06 5.153796894073D+03
    9.358400000000D+04-1.583248376846D-07-2.277139011614D+00 1.080334186554D-07
    9.756477601025D-01 2.230000000000D+02 3.586946788560D-01-7.841040896541D-09
    9.250385315679D-11 1.000000000000D+00 1.356000000000D+03 0.000000000000D+00
    2.000000000000D+00 0.000000000000D+00-2.328306436539D-09 6.500000000000D+01
    8.752800000000D+04 4.000000000000D+00
 8 06  1  2  2  0  0.0-5.206791684031D-05-1.364242052659D-12 0.000000000000D+00
    2.150000000000D+02-1.506875000000D+02 3.985880313628D-09-1.236422356720D+00
   -8.018687367439D-06 9.588934481144D-03 7.519498467445D-06 5.153684452057D+03
    9.360000000000D+04-1.378357410431D-07-1.628951761865D-01-7.823109626770D-08
    9.716415764975D-01 2.409375000000D+02 2.621754046077D+00-7.931044645558D-09
   -9.500395729616D-11 1.000000000000D+00 1.356000000000D+03 0.000000000000D+00
    2.800000000000D+00 0.000000000000D+00-3.725290298462D-09 4.710000000000D+02
    8.773800000000D+04 4.000000000000D+00
15 06  1  2  2  0  0.0 5.434667691588D-04 5.798028723802D-12 0.000000000000D+00
    3.800000000000D+01 2.518750000000D+01 4.574476259583D-09-1.111851618500D+00
    1.009553670883D-06 9.261547122151D-03 1.087784767151D-05 5.153721338272D+03
    9.360000000000D+04 9.313225746155D-09 3.014178197192D+00-1.322478055954D-07
    9.589875999000D-01 1.725312500000D+02 2.538676329831D+00-7.931758961027D-09
   -4.943063041274D-10 1.000000000000D+00 1.356000000000D+03 0.000000000000D+00
    4.000000000000D+00 0.000000000000D+00-2.328306436539D-09 2.940000000000D+02
    8.947800000000D+04 4.000000000000D+00
18 06  1  2  2  0  0.0-2.122810110450D-04-2.387423592154D-12 0.000000000000D+00
    6.100000000000D+01 1.675937500000D+02 4.323037214709D-09-2.765889253818D+00
    8.588656783104D-06 6.692082737572D-03 8.190050721169D-06 5.153659778595D+03
    9.360000000000D+04-5.215406417847D-08-2.253223139079D+00-1.322478055954D-07
    9.596272652189D-01 2.211250000000D+02-2.691654928563D+00-7.922830017672D-09
    1.117903708034D-10 1.000000000000D+00 1.356000000000D+03 0.000000000000D+00
    2.000000000000D+00 0.000000000000D+00-1.024454832077D-08 3.170000000000D+02
    9.049800000000D+04 4.000000000000D+00
 6 06  1  2  1 59 44.0 1.750318333507D-04 4.433786671143D-11 0.000000000000D+00
    4.100000000000D+01 7.625000000000D+00 5.614519581562D-09-1.289833606976D+00
    6.295740604401D-07 5.970446858555D-03 4.969537258148D-06 5.153617691040D+03
    9.358400000000D+04 4.656612873077D-08 1.860967777989D+00 1.806765794754D-07
    9.334787192956D-01 2.678750000000D+02-1.861376220328D+00-8.526069430729D-09
    2.096515899731D-10 1.000000000000D+00 1.356000000000D+03 0.000000000000D+00
    2.000000000000D+00 0.000000000000D+00-4.656612873077D-09 4.100000000000D+01
    9.160800000000D+04 4.000000000000D+00
 6 06  1  2  3 59 44.0 1.753508113325D-04 4.433786671143D-11 0.000000000000D+00
    4.200000000000D+01 1.168750000000D+01 5.597376010321D-09-2.395452999890D-01
    6.798654794693D-07 5.970922764391D-03 5.047768354416D-06 5.153618864059D+03
    1.007840000000D+05-6.519258022308D-08 1.860905723930D+00 1.005828380585D-07
    9.334799276659D-01 2.695000000000D+02-1.861441700541D+00-8.620359072557D-09
    2.232235838726D-10 1.000000000000D+00 1.356000000000D+03 0.000000000000D+00
    2.000000000000D+00 0.000000000000D+00-4.656612873077D-09 4.200000000000D+01
    9.361800000000D+04 4.000000000000D+00
 8 06  1  2  4  0  0.0-5.207816138864D-05-1.364242052659D-12 0.000000000000D+00
    2.160000000000D+02-1.516562500000D+02 4.108028258723D-09-1.863976090543D-01
   -8.121132850647D-06 9.588242974132D-03 6.852671504021D-06 5.153681682587D+03
    1.008000000000D+05 1.434236764908D-07-1.629513200566D-01-2.048909664154D-07
    9.716398063666D-01 2.546250000000D+02 2.621901069344D+00-8.045335120501D-09
   -3.303709041314D-10 1.000000000000D+00 1.356000000000D+03 0.000000000000D+00
    2.800000000000D+00 0.000000000000D+00-3.725290298462D-09 4.720000000000D+02
    9.361800000000D+04 4.000000000000D+00
10 06  1  2  3 59 44.0 7.642060518265D-05 6.821210263297D-13 0.000000000000D+00
    6.600000000000D+01 1.430312500000D+02 4.055883229531D-09 3.037695134893D+00
    7.454305887222D-06 6.804804201238D-03 9.380280971527D-06 5.153793378830D+03
    1.007840000000D+05-8.754432201385D-08-2.277195181817D+00-6.705522537231D-08
    9.756493517574D-01 2.080937500000D+02 3.585853827834D-01-7.682462862558D-09
    1.453631978178D-10 1.000000000000D+00 1.356000000000D+03 0.000000000000D+00
    2.000000000000D+00 0.000000000000D+00-2.328306436539D-09 6.600000000000D+01
    9.361800000000D+04 4.000000000000D+00
15 06  1  2  4  0  0.0 5.435086786747D-04 5.798028723802D-12 0.000000000000D+00
    3.900000000000D+01 1.862500000000D+01 4.509473551960D-09-6.172285004445D-02
    8.661299943924D-07 9.262065403163D-03 1.049041748047D-05 5.153721935272D+03
    1.008000000000D+05 8.009374141693D-08 3.014121169719D+00-9.685754776001D-08
    9.589839704002D-01 1.756875000000D+02 2.538699816980D+00-7.962831683902D-09
   -5.175215568501D-10 1.000000000000D+00 1.356000000000D+03 0.000000000000D+00
    4.000000000000D+00 0.000000000000D+00-2.328306436539D-09 2.950000000000D+02
    9.361800000000D+04 4.000000000000D+00
18 06  1  2  4  0  0.0-2.122977748513D-04-2.387423592154D-12 0.000000000000D+00
    6.200000000000D+01 1.513437500000D+02 4.428755904031D-09-1.715865379515D+00
    7.849186658859D-06 6.693912320770D-03 7.819384336472D-06 5.153656011581D+03
    1.008000000000D+05 7.450580596924D-08-2.253280984323D+00-5.029141902924D-08
    9.596284179983D-01 2.293125000000D+02-2.691487915984D+00-7.967117576712D-09
    2.210806374674D-10 1.000000000000D+00 1.356000000000D+03 0.000000000000D+00
    2.000000000000D+00 0.000000000000D+00-1.024454832077D-08 3.180000000000D+02
    9.361800000000D+04 4.000000000000D+00
